*******************************************************************************
Ephemeris / WWW_USER Fri Mar  7 10:47:41 2025 Pasadena, USA      / Horizons    
*******************************************************************************
Target body name: (2018 TS1)                      {source: JPL#6}
Center body name: Earth (399)                     {source: DE441}
Center-site name: Mauna Kea
*******************************************************************************
Start time      : A.D. 2018-Dec-06 03:52:00.0000 UT      
Stop  time      : A.D. 2018-Dec-06 16:33:00.0000 UT      
Step-size       : 1 minutes
*******************************************************************************
Target pole/equ : undefined
Target radii    : undefined                                                    
Center geodetic : 204.5278, 19.8260847, 4.21024   {E-lon(deg),Lat(deg),Alt(km)}
Center cylindric: 204.5278, 6006.35451, 2151.0229 {E-lon(deg),Dxy(km),Dz(km)}
Center pole/equ : ITRF93                          {East-longitude positive}
Center radii    : 6378.137, 6378.137, 6356.752 km {Equator_a, b, pole_c}       
Target primary  : Sun
Vis. interferer : MOON (R_eq= 1737.400) km        {source: DE441}
Rel. light bend : Sun                             {source: DE441}
Rel. lght bnd GM: 1.3271E+11 km^3/s^2                                          
Small-body perts: Yes                             {source: SB441-N16}
Atmos refraction: NO (AIRLESS)
RA format       : HMS
Time format     : CAL 
Calendar mode   : Mixed Julian/Gregorian
RTS-only print  : NO       
EOP file        : eop.250306.p250602                                           
EOP coverage    : DATA-BASED 1962-JAN-20 TO 2025-MAR-06. PREDICTS-> 2025-JUN-01
Units conversion: 1 au= 149597870.700 km, c= 299792.458 km/s, 1 day= 86400.0 s 
Table cut-offs 1: Elevation (-90.0deg=NO ),Airmass (>38.000=NO), Daylight (YES)
Table cut-offs 2: Solar elongation (  0.0,180.0=NO ),Local Hour Angle( 0.0=NO )
Table cut-offs 3: RA/DEC angular rate (     0.0=NO )                           
*******************************************************************************
Initial IAU76/J2000 heliocentric ecliptic osculating elements (au, days, deg.):
  EPOCH=  2458397.5 ! 2018-Oct-06.00 (TDB)         Residual RMS= .30565        
   EC= .4232280089037878   QR= .7951431742456924   TP= 2458457.9340165281      
   OM= 356.454891650426    W=  97.01949783285009   IN= 2.243887958983723       
  Equivalent ICRF heliocentric cartesian coordinates (au, au/d):
   X= 1.037748414669454E+00  Y= 2.036665248544260E-01  Z= 1.007134111375925E-01
  VX=-1.028941390482545E-02 VY= 1.387292408111162E-02 VZ= 6.642652492995660E-03
Asteroid physical parameters (km, seconds, rotational period in hours):        
   GM= n.a.                RAD= n.a.               ROTPER= n.a.                
   H= 25.7                 G= .150                 B-V= n.a.                   
                           ALBEDO= n.a.            STYP= n.a.                  
*******************************************************************************
 Date__(UT)__HR:MN     R.A._________(ICRF)_________DEC
******************************************************
$$SOE
 2018-Dec-06 12:04     13 37 16.271103 -05 13 26.88978
 2018-Dec-06 12:05     13 37 16.346579 -05 13 27.65235
 2018-Dec-06 12:06     13 37 16.422030 -05 13 28.41492
 2018-Dec-06 12:07     13 37 16.497454 -05 13 29.17751
 2018-Dec-06 12:08     13 37 16.572852 -05 13 29.94010
 2018-Dec-06 12:09     13 37 16.648224 -05 13 30.70271
 2018-Dec-06 12:10     13 37 16.723570 -05 13 31.46532
 2018-Dec-06 12:11     13 37 16.798889 -05 13 32.22794
 2018-Dec-06 12:12     13 37 16.874183 -05 13 32.99056
 2018-Dec-06 12:13     13 37 16.949450 -05 13 33.75320
 2018-Dec-06 12:14     13 37 17.024690 -05 13 34.51584
 2018-Dec-06 12:15     13 37 17.099905 -05 13 35.27849
 2018-Dec-06 12:16     13 37 17.175093 -05 13 36.04115
 2018-Dec-06 12:17     13 37 17.250255 -05 13 36.80382
 2018-Dec-06 12:18     13 37 17.325390 -05 13 37.56649
 2018-Dec-06 12:19     13 37 17.400499 -05 13 38.32918
 2018-Dec-06 12:20     13 37 17.475581 -05 13 39.09186
 2018-Dec-06 12:21     13 37 17.550637 -05 13 39.85456
 2018-Dec-06 12:22     13 37 17.625667 -05 13 40.61726
 2018-Dec-06 12:23     13 37 17.700670 -05 13 41.37997
 2018-Dec-06 12:24     13 37 17.775647 -05 13 42.14268
 2018-Dec-06 12:25     13 37 17.850597 -05 13 42.90540
 2018-Dec-06 12:26     13 37 17.925521 -05 13 43.66813
 2018-Dec-06 12:27     13 37 18.000418 -05 13 44.43086
 2018-Dec-06 12:28     13 37 18.075288 -05 13 45.19360
 2018-Dec-06 12:29     13 37 18.150132 -05 13 45.95634
 2018-Dec-06 12:30     13 37 18.224949 -05 13 46.71909
 2018-Dec-06 12:31     13 37 18.299740 -05 13 47.48184
 2018-Dec-06 12:32     13 37 18.374504 -05 13 48.24460
 2018-Dec-06 12:33     13 37 18.449241 -05 13 49.00736
 2018-Dec-06 12:34     13 37 18.523952 -05 13 49.77013
 2018-Dec-06 12:35     13 37 18.598636 -05 13 50.53290
 2018-Dec-06 12:36     13 37 18.673294 -05 13 51.29568
 2018-Dec-06 12:37     13 37 18.747924 -05 13 52.05846
 2018-Dec-06 12:38     13 37 18.822528 -05 13 52.82124
 2018-Dec-06 12:39     13 37 18.897106 -05 13 53.58403
 2018-Dec-06 12:40     13 37 18.971656 -05 13 54.34682
 2018-Dec-06 12:41     13 37 19.046180 -05 13 55.10962
 2018-Dec-06 12:42     13 37 19.120677 -05 13 55.87242
 2018-Dec-06 12:43     13 37 19.195148 -05 13 56.63522
 2018-Dec-06 12:44     13 37 19.269591 -05 13 57.39802
 2018-Dec-06 12:45     13 37 19.344008 -05 13 58.16083
 2018-Dec-06 12:46     13 37 19.418398 -05 13 58.92364
 2018-Dec-06 12:47     13 37 19.492762 -05 13 59.68645
 2018-Dec-06 12:48     13 37 19.567098 -05 14 00.44927
 2018-Dec-06 12:49     13 37 19.641408 -05 14 01.21208
 2018-Dec-06 12:50     13 37 19.715691 -05 14 01.97490
 2018-Dec-06 12:51     13 37 19.789947 -05 14 02.73772
 2018-Dec-06 12:52     13 37 19.864176 -05 14 03.50054
 2018-Dec-06 12:53     13 37 19.938379 -05 14 04.26337
 2018-Dec-06 12:54     13 37 20.012555 -05 14 05.02619
 2018-Dec-06 12:55     13 37 20.086704 -05 14 05.78902
 2018-Dec-06 12:56  r  13 37 20.160826 -05 14 06.55184
 2018-Dec-06 12:57     13 37 20.234921 -05 14 07.31467
 2018-Dec-06 12:58     13 37 20.308990 -05 14 08.07750
 2018-Dec-06 12:59     13 37 20.383032 -05 14 08.84033
 2018-Dec-06 13:00     13 37 20.457047 -05 14 09.60315
 2018-Dec-06 13:01     13 37 20.531035 -05 14 10.36598
 2018-Dec-06 13:02     13 37 20.604996 -05 14 11.12881
 2018-Dec-06 13:03     13 37 20.678931 -05 14 11.89164
 2018-Dec-06 13:04     13 37 20.752839 -05 14 12.65447
 2018-Dec-06 13:05     13 37 20.826720 -05 14 13.41729
 2018-Dec-06 13:06     13 37 20.900574 -05 14 14.18012
 2018-Dec-06 13:07     13 37 20.974401 -05 14 14.94294
 2018-Dec-06 13:08     13 37 21.048202 -05 14 15.70577
 2018-Dec-06 13:09     13 37 21.121976 -05 14 16.46859
 2018-Dec-06 13:10     13 37 21.195723 -05 14 17.23141
 2018-Dec-06 13:11     13 37 21.269443 -05 14 17.99423
 2018-Dec-06 13:12     13 37 21.343137 -05 14 18.75705
 2018-Dec-06 13:13     13 37 21.416804 -05 14 19.51986
 2018-Dec-06 13:14     13 37 21.490444 -05 14 20.28268
 2018-Dec-06 13:15     13 37 21.564057 -05 14 21.04549
 2018-Dec-06 13:16     13 37 21.637644 -05 14 21.80830
 2018-Dec-06 13:17     13 37 21.711204 -05 14 22.57110
 2018-Dec-06 13:18     13 37 21.784737 -05 14 23.33390
 2018-Dec-06 13:19     13 37 21.858243 -05 14 24.09670
 2018-Dec-06 13:20     13 37 21.931723 -05 14 24.85950
 2018-Dec-06 13:21     13 37 22.005176 -05 14 25.62229
 2018-Dec-06 13:22     13 37 22.078603 -05 14 26.38508
 2018-Dec-06 13:23     13 37 22.152003 -05 14 27.14787
 2018-Dec-06 13:24     13 37 22.225376 -05 14 27.91065
 2018-Dec-06 13:25     13 37 22.298723 -05 14 28.67343
 2018-Dec-06 13:26     13 37 22.372043 -05 14 29.43621
 2018-Dec-06 13:27     13 37 22.445337 -05 14 30.19898
 2018-Dec-06 13:28     13 37 22.518604 -05 14 30.96174
 2018-Dec-06 13:29     13 37 22.591844 -05 14 31.72450
 2018-Dec-06 13:30     13 37 22.665058 -05 14 32.48726
 2018-Dec-06 13:31     13 37 22.738245 -05 14 33.25001
 2018-Dec-06 13:32     13 37 22.811406 -05 14 34.01275
 2018-Dec-06 13:33     13 37 22.884540 -05 14 34.77549
 2018-Dec-06 13:34     13 37 22.957648 -05 14 35.53823
 2018-Dec-06 13:35     13 37 23.030730 -05 14 36.30096
 2018-Dec-06 13:36     13 37 23.103785 -05 14 37.06368
 2018-Dec-06 13:37     13 37 23.176814 -05 14 37.82640
 2018-Dec-06 13:38     13 37 23.249816 -05 14 38.58911
 2018-Dec-06 13:39     13 37 23.322792 -05 14 39.35181
 2018-Dec-06 13:40     13 37 23.395741 -05 14 40.11451
 2018-Dec-06 13:41     13 37 23.468665 -05 14 40.87720
 2018-Dec-06 13:42     13 37 23.541562 -05 14 41.63989
 2018-Dec-06 13:43     13 37 23.614432 -05 14 42.40256
 2018-Dec-06 13:44     13 37 23.687277 -05 14 43.16523
 2018-Dec-06 13:45     13 37 23.760095 -05 14 43.92790
 2018-Dec-06 13:46     13 37 23.832887 -05 14 44.69055
 2018-Dec-06 13:47     13 37 23.905653 -05 14 45.45320
 2018-Dec-06 13:48     13 37 23.978393 -05 14 46.21584
 2018-Dec-06 13:49     13 37 24.051107 -05 14 46.97847
 2018-Dec-06 13:50     13 37 24.123794 -05 14 47.74109
 2018-Dec-06 13:51     13 37 24.196456 -05 14 48.50371
 2018-Dec-06 13:52     13 37 24.269091 -05 14 49.26631
 2018-Dec-06 13:53     13 37 24.341701 -05 14 50.02891
 2018-Dec-06 13:54     13 37 24.414284 -05 14 50.79150
 2018-Dec-06 13:55     13 37 24.486842 -05 14 51.55408
 2018-Dec-06 13:56     13 37 24.559374 -05 14 52.31665
 2018-Dec-06 13:57     13 37 24.631879 -05 14 53.07921
 2018-Dec-06 13:58     13 37 24.704359 -05 14 53.84176
 2018-Dec-06 13:59     13 37 24.776814 -05 14 54.60430
 2018-Dec-06 14:00     13 37 24.849242 -05 14 55.36684
 2018-Dec-06 14:01     13 37 24.921644 -05 14 56.12936
 2018-Dec-06 14:02     13 37 24.994021 -05 14 56.89187
 2018-Dec-06 14:03     13 37 25.066373 -05 14 57.65437
 2018-Dec-06 14:04     13 37 25.138698 -05 14 58.41686
 2018-Dec-06 14:05     13 37 25.210998 -05 14 59.17934
 2018-Dec-06 14:06     13 37 25.283272 -05 14 59.94181
